{"type": "FeatureCollection", "features": [{"type": "Feature", "properties": {"norad_id": 36828, "name": "BEIDOU-2 IGSO-1 (C06)", "group": "beidou", "lat": -40.79279502726216, "lon": 126.23215503365773, "alt_km": 35790.4533653122, "timestamp": "2025-12-09T18:55:17.496834+00:00", "meta": {"OBJECT_NAME": "BEIDOU-2 IGSO-1 (C06)", "OBJECT_ID": "2010-036A", "EPOCH": "2025-12-09T10:39:31.929984", "MEAN_MOTION": 1.00277193, "ECCENTRICITY": 0.0051253, "INCLINATION": 54.2848, "RA_OF_ASC_NODE": 164.6772, "ARG_OF_PERICENTER": 215.9067, "MEAN_ANOMALY": 325.5876, "EPHEMERIS_TYPE": 0, "CLASSIFICATION_TYPE": "U", "NORAD_CAT_ID": 36828, "ELEMENT_SET_NO": 999, "REV_AT_EPOCH": 5619, "BSTAR": 0, "MEAN_MOTION_DOT": -6.8e-07, "MEAN_MOTION_DDOT": 0}, "tle": {"line1": "1 36828U 10036A   25343.44411956 -.00000068  00000+0  00000+0 0  9991", "line2": "2 36828  54.2848 164.6772 0051253 215.9067 325.5876  1.00277193 56196"}}, "geometry": {"type": "Point", "coordinates": [126.23215503365773, -40.79279502726216]}}, {"type": "Feature", "properties": {"norad_id": 37210, "name": "BEIDOU-2 G4 (C04)", "group": "beidou", "lat": 3.176092114669318, "lon": 162.54909801031303, "alt_km": 35791.66826786023, "timestamp": "2025-12-09T18:55:17.496857+00:00", "meta": {"OBJECT_NAME": "BEIDOU-2 G4 (C04)", "OBJECT_ID": "2010-057A", "EPOCH": "2025-12-09T14:20:03.306336", "MEAN_MOTION": 1.00271261, "ECCENTRICITY": 0.00109895, "INCLINATION": 3.1767, "RA_OF_ASC_NODE": 69.9416, "ARG_OF_PERICENTER": 189.8795, "MEAN_ANOMALY": 193.8513, "EPHEMERIS_TYPE": 0, "CLASSIFICATION_TYPE": "U", "NORAD_CAT_ID": 37210, "ELEMENT_SET_NO": 999, "REV_AT_EPOCH": 5539, "BSTAR": 0, "MEAN_MOTION_DOT": -1.1e-06, "MEAN_MOTION_DDOT": 0}, "tle": {"line1": "1 37210U 10057A   25343.59726049 -.00000110  00000+0  00000+0 0  9996", "line2": "2 37210   3.1767  69.9416 0010989 189.8795 193.8513  1.00271261 55390"}}, "geometry": {"type": "Point", "coordinates": [162.54909801031303, 3.176092114669318]}}, {"type": "Feature", "properties": {"norad_id": 37256, "name": "BEIDOU-2 IGSO-2 (C07)", "group": "beidou", "lat": -11.60095224356211, "lon": 104.84375378779544, "alt_km": 35589.336135785365, "timestamp": "2025-12-09T18:55:17.496873+00:00", "meta": {"OBJECT_NAME": "BEIDOU-2 IGSO-2 (C07)", "OBJECT_ID": "2010-068A", "EPOCH": "2025-12-03T17:22:36.027840", "MEAN_MOTION": 1.0028872, "ECCENTRICITY": 0.00492449, "INCLINATION": 47.9042, "RA_OF_ASC_NODE": 274.2614, "ARG_OF_PERICENTER": 216.1411, "MEAN_ANOMALY": 310.24, "EPHEMERIS_TYPE": 0, "CLASSIFICATION_TYPE": "U", "NORAD_CAT_ID": 37256, "ELEMENT_SET_NO": 999, "REV_AT_EPOCH": 5483, "BSTAR": 0, "MEAN_MOTION_DOT": -2.25e-06, "MEAN_MOTION_DDOT": 0}, "tle": {"line1": "1 37256U 10068A   25337.72402810 -.00000225  00000+0  00000+0 0  9990", "line2": "2 37256  47.9042 274.2614 0049244 216.1411 310.2400  1.00288720 54834"}}, "geometry": {"type": "Point", "coordinates": [104.84375378779544, -11.60095224356211]}}, {"type": "Feature", "properties": {"norad_id": 37384, "name": "BEIDOU-2 IGSO-3 (C08)", "group": "beidou", "lat": 54.97752451958008, "lon": 90.89533058669306, "alt_km": 35853.52148564052, "timestamp": "2025-12-09T18:55:17.496887+00:00", "meta": {"OBJECT_NAME": "BEIDOU-2 IGSO-3 (C08)", "OBJECT_ID": "2011-013A", "EPOCH": "2025-12-07T14:00:04.361184", "MEAN_MOTION": 1.00271435, "ECCENTRICITY": 0.0035334, "INCLINATION": 62.1366, "RA_OF_ASC_NODE": 41.9657, "ARG_OF_PERICENTER": 187.0632, "MEAN_ANOMALY": 165.2408, "EPHEMERIS_TYPE": 0, "CLASSIFICATION_TYPE": "U", "NORAD_CAT_ID": 37384, "ELEMENT_SET_NO": 999, "REV_AT_EPOCH": 5373, "BSTAR": 0, "MEAN_MOTION_DOT": -1.91e-06, "MEAN_MOTION_DDOT": 0}, "tle": {"line1": "1 37384U 11013A   25341.58338381 -.00000191  00000+0  00000+0 0  9995", "line2": "2 37384  62.1366  41.9657 0035334 187.0632 165.2408  1.00271435 53735"}}, "geometry": {"type": "Point", "coordinates": [90.89533058669306, 54.97752451958008]}}, {"type": "Feature", "properties": {"norad_id": 37763, "name": "BEIDOU-2 IGSO-4 (C09)", "group": "beidou", "lat": -49.486916400545574, "lon": 110.86932122514155, "alt_km": 35474.71636681599, "timestamp": "2025-12-09T18:55:17.496899+00:00", "meta": {"OBJECT_NAME": "BEIDOU-2 IGSO-4 (C09)", "OBJECT_ID": "2011-038A", "EPOCH": "2025-12-01T12:32:09.960864", "MEAN_MOTION": 1.00284084, "ECCENTRICITY": 0.01488084, "INCLINATION": 54.5806, "RA_OF_ASC_NODE": 167.4476, "ARG_OF_PERICENTER": 230.2017, "MEAN_ANOMALY": 315.0405, "EPHEMERIS_TYPE": 0, "CLASSIFICATION_TYPE": "U", "NORAD_CAT_ID": 37763, "ELEMENT_SET_NO": 999, "REV_AT_EPOCH": 5266, "BSTAR": 0, "MEAN_MOTION_DOT": 1.01e-06, "MEAN_MOTION_DDOT": 0}, "tle": {"line1": "1 37763U 11038A   25335.52233751  .00000101  00000+0  00000+0 0  9995", "line2": "2 37763  54.5806 167.4476 0148808 230.2017 315.0405  1.00284084 52669"}}, "geometry": {"type": "Point", "coordinates": [110.86932122514155, -49.486916400545574]}}, {"type": "Feature", "properties": {"norad_id": 37948, "name": "BEIDOU-2 IGSO-5 (C10)", "group": "beidou", "lat": -0.5150408076910316, "lon": 94.33547820651073, "alt_km": 35430.56723761915, "timestamp": "2025-12-09T18:55:17.496913+00:00", "meta": {"OBJECT_NAME": "BEIDOU-2 IGSO-5 (C10)", "OBJECT_ID": "2011-073A", "EPOCH": "2025-12-07T19:12:14.882400", "MEAN_MOTION": 1.00291658, "ECCENTRICITY": 0.01104068, "INCLINATION": 48.0298, "RA_OF_ASC_NODE": 273.9181, "ARG_OF_PERICENTER": 222.1784, "MEAN_ANOMALY": 321.4594, "EPHEMERIS_TYPE": 0, "CLASSIFICATION_TYPE": "U", "NORAD_CAT_ID": 37948, "ELEMENT_SET_NO": 999, "REV_AT_EPOCH": 5121, "BSTAR": 0, "MEAN_MOTION_DOT": -1.91e-06, "MEAN_MOTION_DDOT": 0}, "tle": {"line1": "1 37948U 11073A   25341.80017225 -.00000191  00000+0  00000+0 0  9993", "line2": "2 37948  48.0298 273.9181 0110406 222.1784 321.4594  1.00291658 51212"}}, "geometry": {"type": "Point", "coordinates": [94.33547820651073, -0.5150408076910316]}}, {"type": "Feature", "properties": {"norad_id": 38091, "name": "BEIDOU-2 G5 (C05)", "group": "beidou", "lat": -0.47913943966379197, "lon": 61.47762991638714, "alt_km": 35815.48598184645, "timestamp": "2025-12-09T18:55:17.496941+00:00", "meta": {"OBJECT_NAME": "BEIDOU-2 G5 (C05)", "OBJECT_ID": "2012-008A", "EPOCH": "2025-12-09T13:51:13.567968", "MEAN_MOTION": 1.00274291, "ECCENTRICITY": 0.00125341, "INCLINATION": 3.1012, "RA_OF_ASC_NODE": 70.7102, "ARG_OF_PERICENTER": 226.3168, "MEAN_ANOMALY": 48.0938, "EPHEMERIS_TYPE": 0, "CLASSIFICATION_TYPE": "U", "NORAD_CAT_ID": 38091, "ELEMENT_SET_NO": 999, "REV_AT_EPOCH": 5046, "BSTAR": 0, "MEAN_MOTION_DOT": 5.8e-07, "MEAN_MOTION_DDOT": 0}, "tle": {"line1": "1 38091U 12008A   25343.57724037  .00000058  00000+0  00000+0 0  9995", "line2": "2 38091   3.1012  70.7102 0012534 226.3168  48.0938  1.00274291 50463"}}, "geometry": {"type": "Point", "coordinates": [61.47762991638714, -0.47913943966379197]}}, {"type": "Feature", "properties": {"norad_id": 38250, "name": "BEIDOU-2 M3 (C11)", "group": "beidou", "lat": 55.18697203706016, "lon": 54.612616845413086, "alt_km": 21590.042463462327, "timestamp": "2025-12-09T18:55:17.496954+00:00", "meta": {"OBJECT_NAME": "BEIDOU-2 M3 (C11)", "OBJECT_ID": "2012-018A", "EPOCH": "2025-12-09T02:31:53.071968", "MEAN_MOTION": 1.86229533, "ECCENTRICITY": 0.00244707, "INCLINATION": 55.9232, "RA_OF_ASC_NODE": 311.2798, "ARG_OF_PERICENTER": 273.7022, "MEAN_ANOMALY": 86.0063, "EPHEMERIS_TYPE": 0, "CLASSIFICATION_TYPE": "U", "NORAD_CAT_ID": 38250, "ELEMENT_SET_NO": 999, "REV_AT_EPOCH": 9240, "BSTAR": 0, "MEAN_MOTION_DOT": -7.5e-07, "MEAN_MOTION_DDOT": 0}, "tle": {"line1": "1 38250U 12018A   25343.10547537 -.00000075  00000+0  00000+0 0  9990", "line2": "2 38250  55.9232 311.2798 0024470 273.7022  86.0063  1.86229533 92404"}}, "geometry": {"type": "Point", "coordinates": [54.612616845413086, 55.18697203706016]}}, {"type": "Feature", "properties": {"norad_id": 38251, "name": "BEIDOU-2 M4 (C12)", "group": "beidou", "lat": 29.743679598041503, "lon": 107.63914084851459, "alt_km": 21554.775993192052, "timestamp": "2025-12-09T18:55:17.496966+00:00", "meta": {"OBJECT_NAME": "BEIDOU-2 M4 (C12)", "OBJECT_ID": "2012-018B", "EPOCH": "2025-12-09T00:54:02.015712", "MEAN_MOTION": 1.86229239, "ECCENTRICITY": 0.00156205, "INCLINATION": 55.8247, "RA_OF_ASC_NODE": 310.5113, "ARG_OF_PERICENTER": 276.8164, "MEAN_ANOMALY": 82.9941, "EPHEMERIS_TYPE": 0, "CLASSIFICATION_TYPE": "U", "NORAD_CAT_ID": 38251, "ELEMENT_SET_NO": 999, "REV_AT_EPOCH": 9240, "BSTAR": 0, "MEAN_MOTION_DOT": -7.4e-07, "MEAN_MOTION_DDOT": 0}, "tle": {"line1": "1 38251U 12018B   25343.03752333 -.00000074  00000+0  00000+0 0  9994", "line2": "2 38251  55.8247 310.5113 0015620 276.8164  82.9941  1.86229239 92404"}}, "geometry": {"type": "Point", "coordinates": [107.63914084851459, 29.743679598041503]}}, {"type": "Feature", "properties": {"norad_id": 38775, "name": "BEIDOU-2 M6 (C14)", "group": "beidou", "lat": -18.84804708134874, "lon": 56.06352798931833, "alt_km": 21500.08665949651, "timestamp": "2025-12-09T18:55:17.496978+00:00", "meta": {"OBJECT_NAME": "BEIDOU-2 M6 (C14)", "OBJECT_ID": "2012-050B", "EPOCH": "2025-12-09T06:50:59.454240", "MEAN_MOTION": 1.86230769, "ECCENTRICITY": 0.00110803, "INCLINATION": 56.3755, "RA_OF_ASC_NODE": 69.1821, "ARG_OF_PERICENTER": 345.0946, "MEAN_ANOMALY": 14.8952, "EPHEMERIS_TYPE": 0, "CLASSIFICATION_TYPE": "U", "NORAD_CAT_ID": 38775, "ELEMENT_SET_NO": 999, "REV_AT_EPOCH": 8977, "BSTAR": 0, "MEAN_MOTION_DOT": -4.8e-07, "MEAN_MOTION_DDOT": 0}, "tle": {"line1": "1 38775U 12050B   25343.28541035 -.00000048  00000+0  00000+0 0  9994", "line2": "2 38775  56.3755  69.1821 0011080 345.0946  14.8952  1.86230769 89773"}}, "geometry": {"type": "Point", "coordinates": [56.06352798931833, -18.84804708134874]}}]}